OBJECT_NAME,OBJECT_ID,EPOCH,MEAN_MOTION,ECCENTRICITY,INCLINATION,RA_OF_ASC_NODE,ARG_OF_PERICENTER,MEAN_ANOMALY,EPHEMERIS_TYPE,CLASSIFICATION_TYPE,NORAD_CAT_ID,ELEMENT_SET_NO,REV_AT_EPOCH,BSTAR,MEAN_MOTION_DOT,MEAN_MOTION_DDOT
TYVAK-0173,2021-059P,2026-07-08T11:13:03.719424,14.81957931,.0007756,96.0077,260.5345,327.4114,32.6624,0,U,48892,999,27139,.15476032E-3,.1195E-4,0
MANDRAKE 2 ABLE,2021-059AE,2026-07-08T11:14:38.752512,15.55865818,.00034766,97.7036,20.8897,266.5946,93.4910,0,U,48907,999,28043,.21691434E-3,.14911E-3,0
MANDRAKE 2 BAKER,2021-059AF,2026-07-08T12:41:02.131296,15.60700994,.00022807,97.7002,23.9779,251.9639,108.1369,0,U,48908,999,28062,.26984269E-3,.22296E-3,0
PACE-1,2021-059AG,2026-07-08T06:48:25.744320,15.84021680,.00030346,97.6743,29.8679,194.9948,165.1232,0,U,48909,999,28113,.41680084E-3,.93512E-3,0
YAM-3,2021-059AN,2026-07-08T13:57:57.187296,15.49041585,.00037502,97.6999,17.9426,276.5387,83.5436,0,U,48915,999,28030,.16649328E-3,.8922E-4,0
FARADAY_PHOENIX,2021-059AX,2026-07-08T11:24:02.258496,15.85017527,.00054025,97.6781,29.9740,217.7060,142.3832,0,U,48924,999,28102,.60440555E-3,.143131E-2,0
DEMO8 (TENZING),2021-059CA,2026-07-08T06:41:18.089376,15.55825784,.00053497,97.7021,24.3158,262.2836,97.7810,0,U,48951,999,28058,.21975135E-3,.15091E-3,0
FENGYUN 3E,2021-062A,2026-07-08T13:16:33.265920,14.19906980,.00025143,98.7503,192.7230,50.0396,310.1001,0,U,49008,999,25961,.13733032E-3,.248E-5,0
ISS (NAUKA),2021-066A,2026-07-08T11:25:36.904512,15.48944488,.00066744,51.6304,194.7265,271.3265,88.6959,0,U,49044,999,60966,.10439061E-3,.5295E-4,0
STARLINK-3100,2021-082Q,2026-07-08T14:29:23.866944,14.98330716,.00031699,70.0001,349.5792,269.7942,90.2854,0,U,49144,999,26409,.47258294E-4,.471E-5,0
CUTE,2021-088D,2026-07-07T05:31:17.825952,16.04923388,.00014696,97.4041,289.5988,300.4812,59.6324,0,U,49263,999,26575,.75030128E-3,.505644E-2,.12214957E-3
2021-091B,2021-091B,2026-07-08T14:33:34.382880,15.18658181,.00125771,97.4480,16.8566,333.1746,26.8836,0,U,49316,999,26223,.6314979E-4,.1242E-4,0
SDGSAT 1,2021-100A,2026-07-08T13:43:07.542912,15.19218438,.00090216,97.2620,235.7037,185.9000,174.2130,0,U,49387,999,25916,.9923832E-4,.2026E-4,0
TEIKYOSAT-4 (OORURI),2021-102B,2026-07-07T16:04:22.179360,15.09581259,.00110164,97.3663,217.3567,216.0060,144.0429,0,U,49396,999,25581,.94970441E-4,.1466E-4,0
Z-SAT,2021-102E,2026-07-08T14:47:57.214752,15.18429305,.00169613,97.3321,224.2894,166.3985,193.7710,0,U,49399,999,25669,.97357156E-4,.1944E-4,0
HIBARI,2021-102F,2026-07-08T08:46:00.897888,15.32175731,.00131815,97.3228,235.0311,122.3377,237.9143,0,U,49400,999,25743,.2217607E-3,.6829E-4,0
KOSEN-1,2021-102H,2026-07-07T01:31:00.190560,15.27132913,.00150823,97.3175,229.8359,133.3577,226.8921,0,U,49402,999,25705,.23303826E-3,.6147E-4,0
GLOBAL-14,2021-106A,2026-07-08T09:34:40.255392,15.51581768,.00164739,42.0026,164.9224,177.8259,182.2659,0,U,49469,999,26142,.27991814E-3,.16839E-3,0
GAOFEN-3 02,2021-109A,2026-07-08T13:20:42.555840,14.42219958,.00015039,98.4095,197.3492,305.5719,54.5330,0,U,49495,999,24339,.32594877E-4,.64E-6,0
GLOBAL-12,2021-115BA,2026-07-08T07:02:40.875360,15.54996378,.00026515,53.1954,302.9559,69.1864,290.9432,0,U,49772,999,25918,.36341053E-3,.24393E-3,0
GLOBAL-13,2021-115BB,2026-07-08T09:10:21.185760,15.46919856,.00014117,53.1976,313.7706,151.1832,208.9255,0,U,49773,999,25904,.29266358E-3,.14567E-3,0
GLOBAL-17,2021-120A,2026-07-08T07:31:37.085952,15.53445038,.00138221,41.9949,283.3018,38.0757,322.1062,0,U,49949,999,25818,.33780532E-3,.21805E-3,0
GLOBAL-16,2021-120B,2026-07-08T13:11:04.321248,15.51249583,.00121004,41.9954,286.0348,28.8061,331.3449,0,U,49950,999,25816,.3191034E-3,.18968E-3,0
XW-3 (CAS-9),2021-131B,2026-07-08T13:47:09.053376,14.41378778,.00049658,98.4981,281.8494,47.0724,313.0881,0,U,50466,999,23819,.15898514E-3,.471E-5,0
ION SCV-004,2022-002K,2026-07-08T10:00:45.936576,15.30663428,.00055447,97.2821,246.6781,278.7229,81.3384,0,U,50993,999,24854,.10899666E-3,.3156E-4,0
ETV-A1,2022-002CE,2026-07-08T13:46:06.188736,15.41137855,.00034925,97.2867,255.8223,258.4214,101.6641,0,U,51060,999,24913,.18927293E-3,.7756E-4,0
BRO-5,2022-002CF,2026-07-08T12:27:01.204416,15.48596866,.00046754,97.2984,263.3927,229.0872,130.9975,0,U,51061,999,24955,.3842192E-3,.2044E-3,0
LUDI TANCE 1-01A (L-SAR 01A),2022-007A,2026-07-08T13:25:23.750688,14.88414199,.00016089,97.8102,196.6755,90.2431,269.8970,0,U,51284,999,24165,.52605351E-4,.433E-5,0
LUDI TANCE 1-01B (L-SAR 01B),2022-018A,2026-07-08T14:13:46.355232,14.88407990,.00016335,97.8107,196.7064,91.4306,268.7098,0,U,51822,999,23689,.5080019E-5,-.7E-7,0
