TYVAK-0173              
1 48892U 21059P   26189.46740416  .00001195  00000+0  15476-3 0  9997
2 48892  96.0077 260.5345 0007756 327.4114  32.6624 14.81957931271397
MANDRAKE 2 ABLE         
1 48907U 21059AE  26189.46850408  .00014911  00000+0  21691-3 0  9993
2 48907  97.7036  20.8897 0003476 266.5946  93.4910 15.55865818280439
MANDRAKE 2 BAKER        
1 48908U 21059AF  26189.52849689  .00022296  00000+0  26984-3 0  9995
2 48908  97.7002  23.9779 0002280 251.9639 108.1369 15.60700994280627
PACE-1                  
1 48909U 21059AG  26189.28363130  .00093512  00000+0  41680-3 0  9990
2 48909  97.6743  29.8679 0003034 194.9948 165.1232 15.84021680281133
YAM-3                   
1 48915U 21059AN  26189.58191189  .00008922  00000+0  16649-3 0  9991
2 48915  97.6999  17.9426 0003750 276.5387  83.5436 15.49041585280304
FARADAY_PHOENIX         
1 48924U 21059AX  26189.47502614  .00143131  00000+0  60441-3 0  9999
2 48924  97.6781  29.9740 0005402 217.7060 142.3832 15.85017527281029
DEMO8 (TENZING)         
1 48951U 21059CA  26189.27868159  .00015091  00000+0  21975-3 0  9998
2 48951  97.7021  24.3158 0005349 262.2836  97.7810 15.55825784280583
FENGYUN 3E              
1 49008U 21062A   26189.55316280  .00000248  00000+0  13733-3 0  9991
2 49008  98.7503 192.7230 0002514  50.0396 310.1001 14.19906980259610
ISS (NAUKA)             
1 49044U 21066A   26189.47612158  .00005295  00000+0  10439-3 0  9996
2 49044  51.6304 194.7265 0006674 271.3265  88.6959 15.48944488609662
STARLINK-3100           
1 49144U 21082Q   26189.60374846  .00000471  00000+0  47258-4 0  9990
2 49144  70.0001 349.5792 0003169 269.7942  90.2854 14.98330716264090
CUTE                    
1 49263U 21088D   26188.23006743  .00505644  12215-3  75030-3 0  9999
2 49263  97.4041 289.5988 0001469 300.4812  59.6324 16.04923388265756
2021-091B               
1 49316U 21091B   26189.60664795  .00001242  00000+0  63150-4 0  9992
2 49316  97.4480  16.8566 0012577 333.1746  26.8836 15.18658181262230
SDGSAT 1                
1 49387U 21100A   26189.57161508  .00002026  00000+0  99238-4 0  9998
2 49387  97.2620 235.7037 0009021 185.9000 174.2130 15.19218438259164
TEIKYOSAT-4 (OORURI)    
1 49396U 21102B   26188.66970115  .00001466  00000+0  94970-4 0  9996
2 49396  97.3663 217.3567 0011016 216.0060 144.0429 15.09581259255812
Z-SAT                   
1 49399U 21102E   26189.61663443  .00001944  00000+0  97357-4 0  9991
2 49399  97.3321 224.2894 0016961 166.3985 193.7710 15.18429305256697
HIBARI                  
1 49400U 21102F   26189.36528817  .00006829  00000+0  22176-3 0  9994
2 49400  97.3228 235.0311 0013181 122.3377 237.9143 15.32175731257439
KOSEN-1                 
1 49402U 21102H   26188.06319665  .00006147  00000+0  23304-3 0  9998
2 49402  97.3175 229.8359 0015082 133.3577 226.8921 15.27132913257059
GLOBAL-14               
1 49469U 21106A   26189.39907703  .00016839  00000+0  27992-3 0  9994
2 49469  42.0026 164.9224 0016473 177.8259 182.2659 15.51581768261421
GAOFEN-3 02             
1 49495U 21109A   26189.55604810  .00000064  00000+0  32595-4 0  9996
2 49495  98.4095 197.3492 0001503 305.5719  54.5330 14.42219958243398
GLOBAL-12               
1 49772U 21115BA  26189.29352865  .00024393  00000+0  36341-3 0  9995
2 49772  53.1954 302.9559 0002651  69.1864 290.9432 15.54996378259180
GLOBAL-13               
1 49773U 21115BB  26189.38218965  .00014567  00000+0  29266-3 0  9998
2 49773  53.1976 313.7706 0001411 151.1832 208.9255 15.46919856259043
GLOBAL-17               
1 49949U 21120A   26189.31362368  .00021805  00000+0  33781-3 0  9999
2 49949  41.9949 283.3018 0013822  38.0757 322.1062 15.53445038258182
GLOBAL-16               
1 49950U 21120B   26189.54935557  .00018968  00000+0  31910-3 0  9990
2 49950  41.9954 286.0348 0012100  28.8061 331.3449 15.51249583258163
XW-3 (CAS-9)            
1 50466U 21131B   26189.57441034  .00000471  00000+0  15899-3 0  9999
2 50466  98.4981 281.8494 0004965  47.0724 313.0881 14.41378778238193
ION SCV-004             
1 50993U 22002K   26189.41719834  .00003156  00000+0  10900-3 0  9992
2 50993  97.2821 246.6781 0005544 278.7229  81.3384 15.30663428248544
ETV-A1                  
1 51060U 22002CE  26189.57368274  .00007756  00000+0  18927-3 0  9990
2 51060  97.2867 255.8223 0003492 258.4214 101.6641 15.41137855249132
BRO-5                   
1 51061U 22002CF  26189.51876394  .00020440  00000+0  38422-3 0  9999
2 51061  97.2984 263.3927 0004675 229.0872 130.9975 15.48596866249555
LUDI TANCE 1-01A (L-SA*)
1 51284U 22007A   26189.55930267  .00000433  00000+0  52605-4 0  9995
2 51284  97.8102 196.6755 0001608  90.2431 269.8970 14.88414199241650
LUDI TANCE 1-01B (L-SA*)
1 51822U 22018A   26189.59289763 -.00000007  00000+0  50800-5 0  9991
2 51822  97.8107 196.7064 0001633  91.4306 268.7098 14.88407990236899
